[{"OBJECT_NAME":"OBJECT K","OBJECT_ID":"2026-040K","EPOCH":"2026-03-05T18:00:00.999648","MEAN_MOTION":16.12430766,"ECCENTRICITY":0.00013424,"INCLINATION":97.2855,"RA_OF_ASC_NODE":12.5258,"ARG_OF_PERICENTER":72.433,"MEAN_ANOMALY":294.268,"EPHEMERIS_TYPE":0,"CLASSIFICATION_TYPE":"U","NORAD_CAT_ID":68024,"ELEMENT_SET_NO":999,"REV_AT_EPOCH":178,"BSTAR":-0.00052229274,"MEAN_MOTION_DOT":-0.00569274,"MEAN_MOTION_DDOT":0.00013449382},{"OBJECT_NAME":"OBJECT L","OBJECT_ID":"2026-040L","EPOCH":"2026-03-05T18:00:00.999648","MEAN_MOTION":16.12668967,"ECCENTRICITY":0.00015768,"INCLINATION":97.2855,"RA_OF_ASC_NODE":12.5261,"ARG_OF_PERICENTER":66.6227,"MEAN_ANOMALY":301.7633,"EPHEMERIS_TYPE":0,"CLASSIFICATION_TYPE":"U","NORAD_CAT_ID":68025,"ELEMENT_SET_NO":999,"REV_AT_EPOCH":173,"BSTAR":-0.00051381007,"MEAN_MOTION_DOT":-0.0056912,"MEAN_MOTION_DDOT":0.0001348771},{"OBJECT_NAME":"OBJECT M","OBJECT_ID":"2026-040M","EPOCH":"2026-03-05T18:00:00.999648","MEAN_MOTION":16.12546915,"ECCENTRICITY":0.00012242,"INCLINATION":97.2853,"RA_OF_ASC_NODE":12.5256,"ARG_OF_PERICENTER":60.0568,"MEAN_ANOMALY":307.5086,"EPHEMERIS_TYPE":0,"CLASSIFICATION_TYPE":"U","NORAD_CAT_ID":68026,"ELEMENT_SET_NO":999,"REV_AT_EPOCH":178,"BSTAR":-0.00050988091,"MEAN_MOTION_DOT":-0.00560142,"MEAN_MOTION_DDOT":0.00013072136},{"OBJECT_NAME":"OBJECT N","OBJECT_ID":"2026-040N","EPOCH":"2026-03-05T18:00:00.999648","MEAN_MOTION":16.14643282,"ECCENTRICITY":0.00018974,"INCLINATION":97.2836,"RA_OF_ASC_NODE":12.5354,"ARG_OF_PERICENTER":62.2483,"MEAN_ANOMALY":326.1838,"EPHEMERIS_TYPE":0,"CLASSIFICATION_TYPE":"U","NORAD_CAT_ID":68027,"ELEMENT_SET_NO":999,"REV_AT_EPOCH":188,"BSTAR":-0.00039255622,"MEAN_MOTION_DOT":-0.00498207,"MEAN_MOTION_DDOT":0.00010832094},{"OBJECT_NAME":"OBJECT P","OBJECT_ID":"2026-040P","EPOCH":"2026-03-05T18:00:00.999648","MEAN_MOTION":16.0858838,"ECCENTRICITY":0.00010692,"INCLINATION":97.2831,"RA_OF_ASC_NODE":12.5255,"ARG_OF_PERICENTER":71.5712,"MEAN_ANOMALY":295.0818,"EPHEMERIS_TYPE":0,"CLASSIFICATION_TYPE":"U","NORAD_CAT_ID":68028,"ELEMENT_SET_NO":999,"REV_AT_EPOCH":189,"BSTAR":-0.0018097776,"MEAN_MOTION_DOT":-0.01521433,"MEAN_MOTION_DDOT":0.00079101881},{"OBJECT_NAME":"OBJECT Q","OBJECT_ID":"2026-040Q","EPOCH":"2026-03-05T18:00:00.999648","MEAN_MOTION":16.12740359,"ECCENTRICITY":0.00018193,"INCLINATION":97.2848,"RA_OF_ASC_NODE":12.5265,"ARG_OF_PERICENTER":68.9815,"MEAN_ANOMALY":300.1861,"EPHEMERIS_TYPE":0,"CLASSIFICATION_TYPE":"U","NORAD_CAT_ID":68029,"ELEMENT_SET_NO":999,"REV_AT_EPOCH":178,"BSTAR":-0.00047332398,"MEAN_MOTION_DOT":-0.00527056,"MEAN_MOTION_DDOT":0.00011703421},{"OBJECT_NAME":"OBJECT R","OBJECT_ID":"2026-040R","EPOCH":"2026-03-05T18:00:00.999648","MEAN_MOTION":16.12867944,"ECCENTRICITY":0.00015201,"INCLINATION":97.2853,"RA_OF_ASC_NODE":12.5266,"ARG_OF_PERICENTER":61.6858,"MEAN_ANOMALY":308.3118,"EPHEMERIS_TYPE":0,"CLASSIFICATION_TYPE":"U","NORAD_CAT_ID":68030,"ELEMENT_SET_NO":999,"REV_AT_EPOCH":178,"BSTAR":-0.000482655,"MEAN_MOTION_DOT":-0.00541983,"MEAN_MOTION_DDOT":0.00012350228},{"OBJECT_NAME":"OBJECT S","OBJECT_ID":"2026-040S","EPOCH":"2026-03-05T18:00:00.999648","MEAN_MOTION":16.12989327,"ECCENTRICITY":0.00014379,"INCLINATION":97.2851,"RA_OF_ASC_NODE":12.5269,"ARG_OF_PERICENTER":55.4582,"MEAN_ANOMALY":315.3597,"EPHEMERIS_TYPE":0,"CLASSIFICATION_TYPE":"U","NORAD_CAT_ID":68031,"ELEMENT_SET_NO":999,"REV_AT_EPOCH":178,"BSTAR":-0.00047694339,"MEAN_MOTION_DOT":-0.00539992,"MEAN_MOTION_DDOT":0.0001228711},{"OBJECT_NAME":"OBJECT T","OBJECT_ID":"2026-040T","EPOCH":"2026-03-05T18:00:00.999648","MEAN_MOTION":16.13650304,"ECCENTRICITY":0.00016412,"INCLINATION":97.2847,"RA_OF_ASC_NODE":12.5296,"ARG_OF_PERICENTER":74.9709,"MEAN_ANOMALY":301.5506,"EPHEMERIS_TYPE":0,"CLASSIFICATION_TYPE":"U","NORAD_CAT_ID":68032,"ELEMENT_SET_NO":999,"REV_AT_EPOCH":188,"BSTAR":-0.00032836037,"MEAN_MOTION_DOT":-0.00389506,"MEAN_MOTION_DDOT":6.7570447e-5},{"OBJECT_NAME":"OBJECT V","OBJECT_ID":"2026-040V","EPOCH":"2026-03-05T18:00:00.999648","MEAN_MOTION":16.13097734,"ECCENTRICITY":0.00012731,"INCLINATION":97.285,"RA_OF_ASC_NODE":12.5272,"ARG_OF_PERICENTER":54.347,"MEAN_ANOMALY":317.1924,"EPHEMERIS_TYPE":0,"CLASSIFICATION_TYPE":"U","NORAD_CAT_ID":68033,"ELEMENT_SET_NO":999,"REV_AT_EPOCH":178,"BSTAR":-0.00049957775,"MEAN_MOTION_DOT":-0.00569612,"MEAN_MOTION_DDOT":0.0001359158},{"OBJECT_NAME":"OBJECT W","OBJECT_ID":"2026-040W","EPOCH":"2026-03-05T18:00:00.999648","MEAN_MOTION":16.13372833,"ECCENTRICITY":0.00021855,"INCLINATION":97.2853,"RA_OF_ASC_NODE":12.5286,"ARG_OF_PERICENTER":71.138,"MEAN_ANOMALY":303.6486,"EPHEMERIS_TYPE":0,"CLASSIFICATION_TYPE":"U","NORAD_CAT_ID":68034,"ELEMENT_SET_NO":999,"REV_AT_EPOCH":178,"BSTAR":-0.00034193894,"MEAN_MOTION_DOT":-0.00398022,"MEAN_MOTION_DDOT":7.0055212e-5},{"OBJECT_NAME":"OBJECT X","OBJECT_ID":"2026-040X","EPOCH":"2026-03-05T18:00:00.999648","MEAN_MOTION":16.14135427,"ECCENTRICITY":0.00013936,"INCLINATION":97.2842,"RA_OF_ASC_NODE":12.5324,"ARG_OF_PERICENTER":59.4555,"MEAN_ANOMALY":321.8681,"EPHEMERIS_TYPE":0,"CLASSIFICATION_TYPE":"U","NORAD_CAT_ID":68035,"ELEMENT_SET_NO":999,"REV_AT_EPOCH":183,"BSTAR":-0.00042833347,"MEAN_MOTION_DOT":-0.00524594,"MEAN_MOTION_DDOT":0.00011835883},{"OBJECT_NAME":"OBJECT Y","OBJECT_ID":"2026-040Y","EPOCH":"2026-03-05T18:00:00.999648","MEAN_MOTION":16.13411905,"ECCENTRICITY":0.00015876,"INCLINATION":97.2849,"RA_OF_ASC_NODE":12.5282,"ARG_OF_PERICENTER":65.0898,"MEAN_ANOMALY":308.8565,"EPHEMERIS_TYPE":0,"CLASSIFICATION_TYPE":"U","NORAD_CAT_ID":68036,"ELEMENT_SET_NO":999,"REV_AT_EPOCH":178,"BSTAR":-0.00048384509,"MEAN_MOTION_DOT":-0.00563678,"MEAN_MOTION_DDOT":0.00013388827},{"OBJECT_NAME":"OBJECT Z","OBJECT_ID":"2026-040Z","EPOCH":"2026-03-05T18:00:00.999648","MEAN_MOTION":16.13479716,"ECCENTRICITY":0.00022154,"INCLINATION":97.2849,"RA_OF_ASC_NODE":12.5292,"ARG_OF_PERICENTER":73.673,"MEAN_ANOMALY":302.0953,"EPHEMERIS_TYPE":0,"CLASSIFICATION_TYPE":"U","NORAD_CAT_ID":68037,"ELEMENT_SET_NO":999,"REV_AT_EPOCH":173,"BSTAR":-0.00032096546,"MEAN_MOTION_DOT":-0.00376436,"MEAN_MOTION_DDOT":6.3271427e-5},{"OBJECT_NAME":"OBJECT AA","OBJECT_ID":"2026-040AA","EPOCH":"2026-03-05T18:00:00.999648","MEAN_MOTION":16.13322897,"ECCENTRICITY":0.00015654,"INCLINATION":97.2849,"RA_OF_ASC_NODE":12.528,"ARG_OF_PERICENTER":70.3471,"MEAN_ANOMALY":302.8134,"EPHEMERIS_TYPE":0,"CLASSIFICATION_TYPE":"U","NORAD_CAT_ID":68038,"ELEMENT_SET_NO":999,"REV_AT_EPOCH":178,"BSTAR":-0.0005049438,"MEAN_MOTION_DOT":-0.00584576,"MEAN_MOTION_DDOT":0.0001430849},{"OBJECT_NAME":"OBJECT AB","OBJECT_ID":"2026-040AB","EPOCH":"2026-03-05T18:00:00.999648","MEAN_MOTION":16.13214944,"ECCENTRICITY":0.00016513,"INCLINATION":97.2848,"RA_OF_ASC_NODE":12.5278,"ARG_OF_PERICENTER":55.9516,"MEAN_ANOMALY":316.3424,"EPHEMERIS_TYPE":0,"CLASSIFICATION_TYPE":"U","NORAD_CAT_ID":68039,"ELEMENT_SET_NO":999,"REV_AT_EPOCH":173,"BSTAR":-0.0005522087,"MEAN_MOTION_DOT":-0.00634322,"MEAN_MOTION_DDOT":0.00016628921}]
